{"type": "FeatureCollection", "features": [ {"type": "Feature", "properties": {"norad_id": 30208, "name": "FENGYUN 1C DEB", "group": "fengyun-1c-debris", "lat": -38.02083176372751, "lon": 170.12624433218733, "alt_km": 797.9819363259903, "timestamp": "2025-12-22T04:03:39.443766+00:00", "meta": {"OBJECT_NAME": "FENGYUN 1C DEB", "OBJECT_ID": "1999-025VR", "EPOCH": "2025-12-21T06:51:11.681568", "MEAN_MOTION": 14.23544135, "ECCENTRICITY": 0.0033019, "INCLINATION": 98.5617, "RA_OF_ASC_NODE": 356.0308, "ARG_OF_PERICENTER": 244.5876, "MEAN_ANOMALY": 128.0451, "EPHEMERIS_TYPE": 0, "CLASSIFICATION_TYPE": "U", "NORAD_CAT_ID": 30208, "ELEMENT_SET_NO": 999, "REV_AT_EPOCH": 97959, "BSTAR": 0.00037818, "MEAN_MOTION_DOT": 8.22e-06, "MEAN_MOTION_DDOT": 0}, "tle": {"line1": "1 30208U 99025VR  25355.28555187  .00000822  00000+0  37818-3 0  9990", "line2": "2 30208  98.5617 356.0308 0033019 244.5876 128.0451 14.23544135979590"}}, "geometry": {"type": "Point", "coordinates": [170.12624433218733, -38.02083176372751]}}, {"type": "Feature", "properties": {"norad_id": 30209, "name": "FENGYUN 1C DEB", "group": "fengyun-1c-debris", "lat": -20.754897971646272, "lon": 169.41376815256643, "alt_km": 826.9962704264108, "timestamp": "2025-12-22T04:03:39.443776+00:00", "meta": {"OBJECT_NAME": "FENGYUN 1C DEB", "OBJECT_ID": "1999-025VS", "EPOCH": "2025-12-21T12:25:02.135712", "MEAN_MOTION": 14.12913177, "ECCENTRICITY": 0.00388426, "INCLINATION": 98.7142, "RA_OF_ASC_NODE": 352.1115, "ARG_OF_PERICENTER": 213.4319, "MEAN_ANOMALY": 273.9227, "EPHEMERIS_TYPE": 0, "CLASSIFICATION_TYPE": "U", "NORAD_CAT_ID": 30209, "ELEMENT_SET_NO": 999, "REV_AT_EPOCH": 97330, "BSTAR": 0.00026724596, "MEAN_MOTION_DOT": 4.58e-06, "MEAN_MOTION_DDOT": 0}, "tle": {"line1": "1 30209U 99025VS  25355.51738583  .00000458  00000+0  26725-3 0  9990", "line2": "2 30209  98.7142 352.1115 0038842 213.4319 273.9227 14.12913177973303"}}, "geometry": {"type": "Point", "coordinates": [169.41376815256643, -20.754897971646272]}}, {"type": "Feature", "properties": {"norad_id": 30210, "name": "FENGYUN 1C DEB", "group": "fengyun-1c-debris", "lat": 49.72491155558301, "lon": 35.07395212838625, "alt_km": 839.7958432020823, "timestamp": "2025-12-22T04:03:39.443787+00:00", "meta": {"OBJECT_NAME": "FENGYUN 1C DEB", "OBJECT_ID": "1999-025VT", "EPOCH": "2025-12-21T14:56:42.408384", "MEAN_MOTION": 14.08285233, "ECCENTRICITY": 0.0056823, "INCLINATION": 99.1894, "RA_OF_ASC_NODE": 45.5315, "ARG_OF_PERICENTER": 112.0467, "MEAN_ANOMALY": 50.0904, "EPHEMERIS_TYPE": 0, "CLASSIFICATION_TYPE": "U", "NORAD_CAT_ID": 30210, "ELEMENT_SET_NO": 999, "REV_AT_EPOCH": 96882, "BSTAR": 0.00052004, "MEAN_MOTION_DOT": 8.56e-06, "MEAN_MOTION_DDOT": 0}, "tle": {"line1": "1 30210U 99025VT  25355.62271306  .00000856  00000+0  52004-3 0  9990", "line2": "2 30210  99.1894  45.5315 0056823 112.0467  50.0904 14.08285233968823"}}, "geometry": {"type": "Point", "coordinates": [35.07395212838625, 49.72491155558301]}}, {"type": "Feature", "properties": {"norad_id": 30212, "name": "FENGYUN 1C DEB", "group": "fengyun-1c-debris", "lat": -75.08278346735307, "lon": -99.45145304878614, "alt_km": 886.6081111349504, "timestamp": "2025-12-22T04:03:39.443797+00:00", "meta": {"OBJECT_NAME": "FENGYUN 1C DEB", "OBJECT_ID": "1999-025VV", "EPOCH": "2025-12-21T14:41:14.318592", "MEAN_MOTION": 13.9706098, "ECCENTRICITY": 0.0096999, "INCLINATION": 99.4566, "RA_OF_ASC_NODE": 221.2474, "ARG_OF_PERICENTER": 213.021, "MEAN_ANOMALY": 146.487, "EPHEMERIS_TYPE": 0, "CLASSIFICATION_TYPE": "U", "NORAD_CAT_ID": 30212, "ELEMENT_SET_NO": 999, "REV_AT_EPOCH": 96349, "BSTAR": 0.00022585, "MEAN_MOTION_DOT": 2.81e-06, "MEAN_MOTION_DDOT": 0}, "tle": {"line1": "1 30212U 99025VV  25355.61197128  .00000281  00000+0  22585-3 0  9993", "line2": "2 30212  99.4566 221.2474 0096999 213.0210 146.4870 13.97060980963496"}}, "geometry": {"type": "Point", "coordinates": [-99.45145304878614, -75.08278346735307]}}, {"type": "Feature", "properties": {"norad_id": 30213, "name": "FENGYUN 1C DEB", "group": "fengyun-1c-debris", "lat": 55.7488541396883, "lon": -93.58495615635438, "alt_km": 852.2430990765188, "timestamp": "2025-12-22T04:03:39.443808+00:00", "meta": {"OBJECT_NAME": "FENGYUN 1C DEB", "OBJECT_ID": "1999-025VW", "EPOCH": "2025-12-21T03:58:24.687264", "MEAN_MOTION": 14.11618723, "ECCENTRICITY": 0.00723621, "INCLINATION": 99.1225, "RA_OF_ASC_NODE": 71.7458, "ARG_OF_PERICENTER": 220.4798, "MEAN_ANOMALY": 205.9124, "EPHEMERIS_TYPE": 0, "CLASSIFICATION_TYPE": "U", "NORAD_CAT_ID": 30213, "ELEMENT_SET_NO": 999, "REV_AT_EPOCH": 96634, "BSTAR": 0.0011918712, "MEAN_MOTION_DOT": 2.174e-05, "MEAN_MOTION_DDOT": 0}, "tle": {"line1": "1 30213U 99025VW  25355.16556351  .00002174  00000+0  11919-2 0  9992", "line2": "2 30213  99.1225  71.7458 0072362 220.4798 205.9124 14.11618723966348"}}, "geometry": {"type": "Point", "coordinates": [-93.58495615635438, 55.7488541396883]}}, {"type": "Feature", "properties": {"norad_id": 30214, "name": "FENGYUN 1C DEB", "group": "fengyun-1c-debris", "lat": -54.25253216930334, "lon": -122.9622149665678, "alt_km": 806.7073015343494, "timestamp": "2025-12-22T04:03:39.443818+00:00", "meta": {"OBJECT_NAME": "FENGYUN 1C DEB", "OBJECT_ID": "1999-025VX", "EPOCH": "2025-12-20T04:06:49.264128", "MEAN_MOTION": 14.30979194, "ECCENTRICITY": 0.00203736, "INCLINATION": 98.7243, "RA_OF_ASC_NODE": 67.3499, "ARG_OF_PERICENTER": 21.7717, "MEAN_ANOMALY": 7.5824, "EPHEMERIS_TYPE": 0, "CLASSIFICATION_TYPE": "U", "NORAD_CAT_ID": 30214, "ELEMENT_SET_NO": 999, "REV_AT_EPOCH": 97673, "BSTAR": 0.0010820847, "MEAN_MOTION_DOT": 2.808e-05, "MEAN_MOTION_DDOT": 0}, "tle": {"line1": "1 30214U 99025VX  25354.17140352  .00002808  00000+0  10821-2 0  9998", "line2": "2 30214  98.7243  67.3499 0020373  21.7717   7.5824 14.30979194976738"}}, "geometry": {"type": "Point", "coordinates": [-122.9622149665678, -54.25253216930334]}}, {"type": "Feature", "properties": {"norad_id": 30217, "name": "FENGYUN 1C DEB", "group": "fengyun-1c-debris", "lat": -0.32273628795534165, "lon": 159.522387413165, "alt_km": 841.5966969905785, "timestamp": "2025-12-22T04:03:39.443829+00:00", "meta": {"OBJECT_NAME": "FENGYUN 1C DEB", "OBJECT_ID": "1999-025WA", "EPOCH": "2025-12-21T12:03:50.817600", "MEAN_MOTION": 14.24845153, "ECCENTRICITY": 0.01407129, "INCLINATION": 98.4322, "RA_OF_ASC_NODE": 338.9298, "ARG_OF_PERICENTER": 74.3666, "MEAN_ANOMALY": 287.2992, "EPHEMERIS_TYPE": 0, "CLASSIFICATION_TYPE": "U", "NORAD_CAT_ID": 30217, "ELEMENT_SET_NO": 999, "REV_AT_EPOCH": 98198, "BSTAR": 0.00020968167, "MEAN_MOTION_DOT": 5.01e-06, "MEAN_MOTION_DDOT": 0}, "tle": {"line1": "1 30217U 99025WA  25355.50267150  .00000501  00000+0  20968-3 0  9997", "line2": "2 30217  98.4322 338.9298 0140712  74.3666 287.2992 14.24845153981983"}}, "geometry": {"type": "Point", "coordinates": [159.522387413165, -0.32273628795534165]}}, {"type": "Feature", "properties": {"norad_id": 30218, "name": "FENGYUN 1C DEB", "group": "fengyun-1c-debris", "lat": -0.6650999999847623, "lon": -94.2777618864964, "alt_km": 763.0383773736621, "timestamp": "2025-12-22T04:03:39.443839+00:00", "meta": {"OBJECT_NAME": "FENGYUN 1C DEB", "OBJECT_ID": "1999-025WB", "EPOCH": "2025-12-21T17:50:42.002016", "MEAN_MOTION": 14.28906431, "ECCENTRICITY": 0.0071171, "INCLINATION": 98.9872, "RA_OF_ASC_NODE": 85.389, "ARG_OF_PERICENTER": 228.287, "MEAN_ANOMALY": 284.4411, "EPHEMERIS_TYPE": 0, "CLASSIFICATION_TYPE": "U", "NORAD_CAT_ID": 30218, "ELEMENT_SET_NO": 999, "REV_AT_EPOCH": 97237, "BSTAR": 0.0019342, "MEAN_MOTION_DOT": 4.975e-05, "MEAN_MOTION_DDOT": 0}, "tle": {"line1": "1 30218U 99025WB  25355.74354169  .00004975  00000+0  19342-2 0  9993", "line2": "2 30218  98.9872  85.3890 0071171 228.2870 284.4411 14.28906431972378"}}, "geometry": {"type": "Point", "coordinates": [-94.2777618864964, -0.6650999999847623]}}, {"type": "Feature", "properties": {"norad_id": 30221, "name": "FENGYUN 1C DEB", "group": "fengyun-1c-debris", "lat": -53.1869756791743, "lon": 96.52331733840826, "alt_km": 705.322097524404, "timestamp": "2025-12-22T04:03:39.443849+00:00", "meta": {"OBJECT_NAME": "FENGYUN 1C DEB", "OBJECT_ID": "1999-025WE", "EPOCH": "2025-12-21T18:20:25.422432", "MEAN_MOTION": 14.45827381, "ECCENTRICITY": 0.0144974, "INCLINATION": 98.956, "RA_OF_ASC_NODE": 83.9323, "ARG_OF_PERICENTER": 14.5334, "MEAN_ANOMALY": 345.9958, "EPHEMERIS_TYPE": 0, "CLASSIFICATION_TYPE": "U", "NORAD_CAT_ID": 30221, "ELEMENT_SET_NO": 999, "REV_AT_EPOCH": 99531, "BSTAR": 0.00015684, "MEAN_MOTION_DOT": 5.77e-06, "MEAN_MOTION_DDOT": 0}, "tle": {"line1": "1 30221U 99025WE  25355.76418313  .00000577  00000+0  15684-3 0  9991", "line2": "2 30221  98.9560  83.9323 0144974  14.5334 345.9958 14.45827381995317"}}, "geometry": {"type": "Point", "coordinates": [96.52331733840826, -53.1869756791743]}}, {"type": "Feature", "properties": {"norad_id": 30222, "name": "FENGYUN 1C DEB", "group": "fengyun-1c-debris", "lat": -51.26886733461772, "lon": 40.48698697987892, "alt_km": 874.170014851511, "timestamp": "2025-12-22T04:03:39.443859+00:00", "meta": {"OBJECT_NAME": "FENGYUN 1C DEB", "OBJECT_ID": "1999-025WF", "EPOCH": "2025-12-21T13:41:30.018048", "MEAN_MOTION": 14.04076347, "ECCENTRICITY": 0.0037432, "INCLINATION": 98.84, "RA_OF_ASC_NODE": 28.7165, "ARG_OF_PERICENTER": 12.5914, "MEAN_ANOMALY": 151.0678, "EPHEMERIS_TYPE": 0, "CLASSIFICATION_TYPE": "U", "NORAD_CAT_ID": 30222, "ELEMENT_SET_NO": 999, "REV_AT_EPOCH": 96962, "BSTAR": 0.00016096, "MEAN_MOTION_DOT": 2.13e-06, "MEAN_MOTION_DDOT": 0}, "tle": {"line1": "1 30222U 99025WF  25355.57048632  .00000213  00000+0  16096-3 0  9999", "line2": "2 30222  98.8400  28.7165 0037432  12.5914 151.0678 14.04076347969626"}}, "geometry": {"type": "Point", "coordinates": [40.48698697987892, -51.26886733461772]}}]}